STARLINK-37998          
1 69679U 26145C   26196.33335648 -.00054361  00000+0 -36633-3 0  9998
2 69679  97.2837  43.1869 0001511  83.3346 108.5358 15.75162566  4458
STARLINK-37994          
1 69680U 26145D   26196.55505182  .00133481  00000+0  88086-3 0  9994
2 69680  97.2832  43.4138 0000643  44.0709 316.0608 15.75216527  3235
STARLINK-37992          
1 69681U 26145E   26196.55470099  .00187147  00000+0  12268-2 0  9999
2 69681  97.2836  43.4135 0000724   3.8713 356.2557 15.75218967  3234
STARLINK-37997          
1 69682U 26145F   26196.91668981 -.00015170  00000+0 -10111-3 0  9993
2 69682  97.2839  43.7966 0001236 101.7137 153.7840 15.75167620  4549
STARLINK-37990          
1 69683U 26145G   26196.91668981 -.00079439  00000+0 -53653-3 0  9990
2 69683  97.2840  43.7953 0001372  89.1996 164.2939 15.75196289  4540
STARLINK-37951          
1 69684U 26145H   26196.55328819  .00135576  00000+0  89471-3 0  9994
2 69684  97.2832  43.4154 0000887   7.7602 352.3677 15.75210077  3238
STARLINK-37957          
1 69685U 26145J   26196.55221912  .00135471  00000+0  89358-3 0  9999
2 69685  97.2828  43.4182 0001253  58.1811 301.9576 15.75221529  3237
STARLINK-37968          
1 69686U 26145K   26196.54623297  .00164819  00000+0  10835-2 0  9992
2 69686  97.2835  43.4268 0000908  32.5094 327.6227 15.75214668  3230
STARLINK-37977          
1 69687U 26145L   26196.54552606  .00146253  00000+0  96339-3 0  9994
2 69687  97.2839  43.4285 0000910  22.4372 337.6933 15.75222047  3239
STARLINK-37908          
1 69688U 26145M   26196.54340860  .00148573  00000+0  97875-3 0  9995
2 69688  97.2834  43.4312 0001319  10.3273 349.8019 15.75213317  3236
STARLINK-37979          
1 69689U 26145N   26196.54305522  .00175536  00000+0  11519-2 0  9991
2 69689  97.2845  43.4315 0000731   8.9679 351.1599 15.75225851  3237
STARLINK-37940          
1 69690U 26145P   26196.54202963 -.00860552  00000+0 -65205-2 0  9990
2 69690  97.2826  43.4321 0003248 236.6285 123.4670 15.74653863  3231
STARLINK-37961          
1 69691U 26145Q   26196.53881941  .00126221  00000+0  83383-3 0  9993
2 69691  97.2830  43.4364 0001444  86.6136 273.5294 15.75212867  3233
STARLINK-37787          
1 69692U 26145R   26196.53670288  .00124508  00000+0  82281-3 0  9996
2 69692  97.2829  43.4396 0001149  67.7661 292.3726 15.75209882  3234
STARLINK-37962          
1 69693U 26145S   26196.53494100  .00144542  00000+0  95280-3 0  9997
2 69693  97.2831  43.4422 0001125  64.5794 295.5587 15.75210378  3236
STARLINK-37953          
1 69694U 26145T   26196.53777788 -.00071397  00000+0 -48428-3 0  9995
2 69694  97.2834  43.4389 0000960 140.1295 220.0040 15.75072706  3233
STARLINK-37926          
1 69695U 26145U   26196.91668981 -.00014093  00000+0 -93859-4 0  9991
2 69695  97.2833  43.8384 0001408  93.6472 257.8366 15.75168054  4545
STARLINK-37959          
1 69696U 26145V   26196.53599769  .00116399  00000+0  77011-3 0  9998
2 69696  97.2832  43.4405 0001037  33.9321 326.2010 15.75206831  3231
STARLINK-37976          
1 69697U 26145W   26196.53317503  .00174769  00000+0  11457-2 0  9999
2 69697  97.2825  43.4447 0000930  98.2106 261.9264 15.75252510  3237
STARLINK-37912          
1 69698U 26145X   26196.53211593  .00156079  00000+0  10256-2 0  9992
2 69698  97.2823  43.4471 0001475 107.1267 253.0160 15.75249504  3232
STARLINK-37974          
1 69699U 26145Y   26196.53140975  .00148380  00000+0  97610-3 0  9994
2 69699  97.2827  43.4477 0001114  84.6899 275.4494 15.75246703  3239
STARLINK-37955          
1 69700U 26145Z   26196.84657686  .00115964  00000+0  76712-3 0  9995
2 69700  97.2830  43.7842 0001390  92.8657 267.2767 15.75211230  3288
STRIX-8                 
1 69701U 26146A   26196.88278562  .00002279  00000+0  17370-3 0  9992
2 69701  41.9903   9.2842 0007079  27.3338 332.7861 15.04437487  2886
ELECTRON R/B            
1 69702U 26146B   26196.80212195  .00417328  62506-4  10176-2 0  9990
2 69702  42.0736 358.9122 0167131  24.6344 336.2381 15.75637069  3008
ELECTRON KICK STAGE R/B 
1 69703U 26146C   26196.87622942  .00001974  00000+0  15024-3 0  9993
2 69703  41.9887   9.2307 0008878  28.4070 331.7240 15.04945879  2887
STARLINK-38055          
1 69704U 26147A   26196.54903400  .00311122  00000+0  15579-2 0  9993
2 69704  97.2820 232.9552 0000593 304.1385  55.9827 15.80953977  3918
STARLINK-37898          
1 69705U 26147B   26196.86471841  .00235109  00000+0  11852-2 0  9998
2 69705  97.2831 233.2909 0001382  25.8746 334.2591 15.81003094  3969
STARLINK-37970          
1 69706U 26147C   26196.86396258  .00213321  00000+0  10788-2 0  9996
2 69706  97.2821 233.2925 0002414 133.4564 226.6906 15.80989602  3969
STARLINK-37975          
1 69707U 26147D   26196.54670654  .00303973  00000+0  15236-2 0  9993
2 69707  97.2829 232.9594 0000304 305.8001  54.3239 15.80950238  3916
STARLINK-37972          
1 69708U 26147E   26196.10284695  .00137961  00000+0  70898-3 0  9990
2 69708  97.2831 232.4913 0000724 112.6643 247.4702 15.80837116  3843
